CCSDS_OMM_VERS,COMMENT,CREATION_DATE,ORIGINATOR,OBJECT_NAME,OBJECT_ID,CENTER_NAME,REF_FRAME,TIME_SYSTEM,MEAN_ELEMENT_THEORY,EPOCH,MEAN_MOTION,ECCENTRICITY,INCLINATION,RA_OF_ASC_NODE,ARG_OF_PERICENTER,MEAN_ANOMALY,EPHEMERIS_TYPE,CLASSIFICATION_TYPE,NORAD_CAT_ID,ELEMENT_SET_NO,REV_AT_EPOCH,BSTAR,MEAN_MOTION_DOT,MEAN_MOTION_DDOT,SEMIMAJOR_AXIS,PERIOD,APOAPSIS,PERIAPSIS,OBJECT_TYPE,RCS_SIZE,COUNTRY_CODE,LAUNCH_DATE,SITE,DECAY_DATE,FILE,GP_ID,TLE_LINE0,TLE_LINE1,TLE_LINE2
2.0,GENERATED VIA SPACE-TRACK.ORG API,2022-08-20T15:06:12,18 SPCS,SUPERVIEW-1 04,2018-002B,EARTH,TEME,UTC,SGP4,2022-08-20T11:54:05.452416,15.17814797,0.0001657,97.4411,310.1234,98.2766,30.1404,0,U,43100,999,25501,0.00017182,3.408e-05,0.0,6890.583,94.873,513.59,511.307,PAYLOAD,LARGE,PRC,2018-01-09,TSC,,3541251,210560517,0 SUPERVIEW-1 04,1 43100U 18002B   22232.49589644  .00003408  00000-0  17182-3 0  9996,2 43100  97.4411 310.1234 0001657  98.2766  30.1404 15.17814797255012
2.0,GENERATED VIA SPACE-TRACK.ORG API,2022-08-20T14:56:12,18 SPCS,MVL 300,2016-026A,EARTH,TEME,UTC,SGP4,2022-08-20T11:54:03.903264,15.35362528,0.0009019,97.0413,96.7145,305.1734,149.1516,0,U,41464,999,35277,0.00029222,9.976e-05,0.0,6837.981,93.789,466.013,453.679,PAYLOAD,LARGE,CIS,2016-04-28,VOSTO,,3541185,210559176,0 MVL 300,1 41464U 16026A   22232.49587851  .00009976  00000-0  29222-3 0  9993,2 41464  97.0413  96.7145 0009019 305.1734 149.1516 15.35362528352770
2.0,GENERATED VIA SPACE-TRACK.ORG API,2022-08-20T14:26:12,18 SPCS,YAOGAN-30 AE,2021-065C,EARTH,TEME,UTC,SGP4,2022-08-20T11:52:38.144352,14.9065479,9.46e-05,34.9967,61.4692,337.4963,22.5704,0,U,49028,999,5930,0.00010863,1.058e-05,0.0,6974.03,96.602,596.554,595.235,PAYLOAD,LARGE,PRC,2021-07-19,XSC,,3541103,210557422,0 YAOGAN-30 AE,1 49028U 21065C   22232.49488593  .00001058  00000-0  10863-3 0  9993,2 49028  34.9967  61.4692 0000946 337.4963  22.5704 14.90654790 59307
2.0,GENERATED VIA SPACE-TRACK.ORG API,2022-08-20T15:06:12,18 SPCS,DELTA 1 R/B(1),1977-118B,EARTH,TEME,UTC,SGP4,2022-08-20T11:51:31.735584,13.40640244,0.0842406,28.6616,327.3397,174.988,185.9752,0,U,10517,999,16288,0.00026347,1.5e-05,0.0,7485.032,107.411,1737.441,476.354,ROCKET BODY,LARGE,US,1977-12-15,AFETR,,3541212,210559485,0 DELTA 1 R/B(1),1 10517U 77118B   22232.49411731  .00001500  00000-0  26347-3 0  9990,2 10517  28.6616 327.3397 0842406 174.9880 185.9752 13.40640244162880
2.0,GENERATED VIA SPACE-TRACK.ORG API,2022-08-20T15:06:12,18 SPCS,STARLINK-2179,2021-017AR,EARTH,TEME,UTC,SGP4,2022-08-20T11:50:34.283904,15.06385315,0.0001306,53.0535,274.9649,92.9579,267.1559,0,U,47761,999,8158,-5.0521e-05,-1.033e-05,0.0,6925.394,95.593,548.163,546.354,PAYLOAD,LARGE,US,2021-03-04,AFETR,,3541249,210560710,0 STARLINK-2179,1 47761U 21017AR  22232.49345236 -.00001033  00000-0 -50521-4 0  9999,2 47761  53.0535 274.9649 0001306  92.9579 267.1559 15.06385315 81584
2.0,GENERATED VIA SPACE-TRACK.ORG API,2022-08-20T15:06:12,18 SPCS,STARLINK-2406,2021-018AL,EARTH,TEME,UTC,SGP4,2022-08-20T11:50:33.791424,15.06387445,0.0001415,53.0564,314.9748,102.518,257.5967,0,U,47821,999,8074,-5.2406e-05,-1.062e-05,0.0,6925.387,95.593,548.232,546.272,PAYLOAD,LARGE,US,2021-03-11,AFETR,,3541254,210560571,0 STARLINK-2406,1 47821U 21018AL  22232.49344666 -.00001062  00000-0 -52406-4 0  9999,2 47821  53.0564 314.9748 0001415 102.5180 257.5967 15.06387445 80744
2.0,GENERATED VIA SPACE-TRACK.ORG API,2022-08-20T14:16:12,18 SPCS,VRSS-2,2017-060A,EARTH,TEME,UTC,SGP4,2022-08-20T11:50:06.786240,14.76527102,0.001799,97.8466,300.3754,325.4417,34.5631,0,U,42954,999,26203,6.3616e-05,3.94e-06,0.0,7018.445,97.526,652.936,627.684,PAYLOAD,LARGE,VENZ,2017-10-09,JSC,,3541078,210556871,0 VRSS-2,1 42954U 17060A   22232.49313410  .00000394  00000-0  63616-4 0  9996,2 42954  97.8466 300.3754 0017990 325.4417  34.5631 14.76527102262030
2.0,GENERATED VIA SPACE-TRACK.ORG API,2022-08-20T14:56:12,18 SPCS,JILIN-01 GAOFEN 2F,2021-097A,EARTH,TEME,UTC,SGP4,2022-08-20T11:47:55.229280,15.10578279,0.0008714,97.5556,338.4642,338.2835,84.6632,0,U,49338,999,4485,0.0001873,3.03e-05,0.0,6912.572,95.328,540.461,528.414,PAYLOAD,LARGE,PRC,2021-10-27,JSC,,3541195,210558959,0 JILIN-01 GAOFEN 2F,1 49338U 21097A   22232.49161145  .00003030  00000-0  18730-3 0  9996,2 49338  97.5556 338.4642 0008714 338.2835  84.6632 15.10578279 44853
2.0,GENERATED VIA SPACE-TRACK.ORG API,2022-08-20T15:06:12,18 SPCS,STARLINK-2150,2021-017T,EARTH,TEME,UTC,SGP4,2022-08-20T11:45:54.309888,15.06395675,0.0001434,53.0545,289.9885,90.2709,269.8444,0,U,47739,999,8137,-7.6044e-05,-1.414e-05,0.0,6925.362,95.592,548.22,546.234,PAYLOAD,LARGE,US,2021-03-04,AFETR,,3541256,210560593,0 STARLINK-2150,1 47739U 21017T   22232.49021192 -.00001414  00000-0 -76044-4 0  9997,2 47739  53.0545 289.9885 0001434  90.2709 269.8444 15.06395675 81375
2.0,GENERATED VIA SPACE-TRACK.ORG API,2022-08-20T14:56:12,18 SPCS,SKYMED 3,2008-054A,EARTH,TEME,UTC,SGP4,2022-08-20T11:45:22.876704,14.91884877,0.0016209,97.8913,56.3136,266.1854,93.7499,0,U,33412,999,74772,9.5754e-05,9.11e-06,0.0,6970.196,96.522,603.359,580.763,PAYLOAD,LARGE,IT,2008-10-25,AFWTR,,3541196,210558982,0 SKYMED 3,1 33412U 08054A   22232.48984811  .00000911  00000-0  95754-4 0  9999,2 33412  97.8913  56.3136 0016209 266.1854  93.7499 14.91884877747721
2.0,GENERATED VIA SPACE-TRACK.ORG API,2022-08-20T15:06:12,18 SPCS,OBJECT H,2022-023H,EARTH,TEME,UTC,SGP4,2022-08-20T11:45:12.031776,15.01531434,0.0106401,63.6413,2.5252,249.7296,109.2325,0,U,51953,999,2526,0.0001356,1.777e-05,0.0,6940.31,95.902,636.021,488.33,UNKNOWN,LARGE,PRC,2022-03-05,XSC,,3541250,210560720,0 OBJECT H,1 51953U 22023H   22232.48972259  .00001777  00000-0  13560-3 0  9999,2 51953  63.6413   2.5252 0106401 249.7296 109.2325 15.01531434 25269
2.0,GENERATED VIA SPACE-TRACK.ORG API,2022-08-20T15:06:12,18 SPCS,CZ-2C DEB,2012-056D,EARTH,TEME,UTC,SGP4,2022-08-20T11:45:02.994336,14.88115228,0.0016071,97.7166,303.7235,95.9588,264.3461,0,U,38863,999,53364,0.00025461,2.295e-05,0.0,6981.962,96.767,615.047,592.606,DEBRIS,LARGE,PRC,2012-10-14,TSC,,3541243,210559856,0 CZ-2C DEB,1 38863U 12056D   22232.48961799  .00002295  00000-0  25461-3 0  9995,2 38863  97.7166 303.7235 0016071  95.9588 264.3461 14.88115228533645
2.0,GENERATED VIA SPACE-TRACK.ORG API,2022-08-20T15:06:12,18 SPCS,PLEIADES 1B,2012-068A,EARTH,TEME,UTC,SGP4,2022-08-20T11:43:24.472416,14.58560578,0.0001429,98.1926,306.5546,87.0992,273.0373,0,U,39019,999,51726,4.2883e-05,1.54e-06,0.0,7075.963,98.727,698.839,696.816,PAYLOAD,LARGE,FR,2012-12-02,FRGUI,,3541226,210559693,0 PLEIADES 1B,1 39019U 12068A   22232.48847769  .00000154  00000-0  42883-4 0  9992,2 39019  98.1926 306.5546 0001429  87.0992 273.0373 14.58560578517264
2.0,GENERATED VIA SPACE-TRACK.ORG API,2022-08-20T15:06:12,18 SPCS,SL-8 R/B,1967-045B,EARTH,TEME,UTC,SGP4,2022-08-20T11:43:20.923104,14.43944607,0.0066918,74.0101,247.1776,208.0907,151.6634,0,U,2802,999,90177,3.4416e-05,9.2e-07,0.0,7123.632,99.727,793.167,697.827,ROCKET BODY,LARGE,CIS,1967-05-15,PKMTR,,3541240,210559564,0 SL-8 R/B,1  2802U 67045B   22232.48843661  .00000092  00000-0  34416-4 0  9998,2  2802  74.0101 247.1776 0066918 208.0907 151.6634 14.43944607901779
2.0,GENERATED VIA SPACE-TRACK.ORG API,2022-08-20T15:06:12,18 SPCS,SSTL S1-4,2018-071A,EARTH,TEME,UTC,SGP4,2022-08-20T11:43:16.248000,14.94878106,0.0012739,97.6783,126.1449,141.6491,218.5567,0,U,43618,999,21420,4.8519e-05,4.73e-06,0.0,6960.888,96.329,591.621,573.886,PAYLOAD,LARGE,UK,2018-09-16,SRI,,3541243,210559864,0 SSTL S1-4,1 43618U 18071A   22232.48838250  .00000473  00000-0  48519-4 0  9993,2 43618  97.6783 126.1449 0012739 141.6491 218.5567 14.94878106214200
2.0,GENERATED VIA SPACE-TRACK.ORG API,2022-08-20T14:36:12,18 SPCS,OBJECT A,2022-096A,EARTH,TEME,UTC,SGP4,2022-08-20T11:39:18.080352,15.24258405,0.0001906,97.4355,133.8644,85.0385,30.803,0,U,53370,999,172,0.00012669,3.02e-05,0.0,6871.15,94.472,494.325,491.706,UNKNOWN,LARGE,TBD,2022-08-09,TTMTR,,3541124,210557729,0 OBJECT A,1 53370U 22096A   22232.48562593  .00003020  00000-0  12669-3 0  9992,2 53370  97.4355 133.8644 0001906  85.0385  30.8030 15.24258405  1727
2.0,GENERATED VIA SPACE-TRACK.ORG API,2022-08-20T15:06:12,18 SPCS,STARLINK-2194,2021-017BB,EARTH,TEME,UTC,SGP4,2022-08-20T11:37:57.543456,15.06395733,0.000141,53.0546,270.0092,76.1519,283.9626,0,U,47771,999,8165,-6.8602e-05,-1.303e-05,0.0,6925.362,95.592,548.203,546.25,PAYLOAD,LARGE,US,2021-03-04,AFETR,,3541252,210560745,0 STARLINK-2194,1 47771U 21017BB  22232.48469379 -.00001303  00000-0 -68602-4 0  9993,2 47771  53.0546 270.0092 0001410  76.1519 283.9626 15.06395733 81654
2.0,GENERATED VIA SPACE-TRACK.ORG API,2022-08-20T14:36:12,18 SPCS,GAOFEN 9 05,2020-058A,EARTH,TEME,UTC,SGP4,2022-08-20T11:37:49.725120,15.23486264,0.0010121,97.4019,285.9466,251.5678,221.5555,0,U,46232,999,11074,0.00015376,3.601e-05,0.0,6873.472,94.52,502.293,488.38,PAYLOAD,LARGE,PRC,2020-08-23,JSC,,3541130,210557628,0 GAOFEN 9 05,1 46232U 20058A   22232.48460330  .00003601  00000-0  15376-3 0  9996,2 46232  97.4019 285.9466 0010121 251.5678 221.5555 15.23486264110747
2.0,GENERATED VIA SPACE-TRACK.ORG API,2022-08-20T15:06:12,18 SPCS,STARLINK-1469,2020-038Y,EARTH,TEME,UTC,SGP4,2022-08-20T11:34:48.131328,16.0802904,0.0002779,52.9872,290.6119,356.0318,4.0751,0,U,45752,999,12690,0.0042518,0.02914032,0.014092,6630.393,89.551,254.1,250.415,PAYLOAD,LARGE,US,2020-06-13,AFETR,,3541228,210559720,0 STARLINK-1469,1 45752U 20038Y   22232.48250152  .02914032  14092-1  42518-2 0  9994,2 45752  52.9872 290.6119 0002779 356.0318   4.0751 16.08029040126902
2.0,GENERATED VIA SPACE-TRACK.ORG API,2022-08-20T15:06:12,18 SPCS,BREEZE-KM R/B,2018-039B,EARTH,TEME,UTC,SGP4,2022-08-20T11:34:02.589024,15.00331115,0.0229318,98.6768,143.0698,192.2149,167.3457,0,U,43438,999,23615,7.5347e-05,1.552e-05,0.0,6944.011,95.979,725.115,406.638,ROCKET BODY,LARGE,CIS,2018-04-25,PKMTR,,3541244,210560411,0 BREEZE-KM R/B,1 43438U 18039B   22232.48197441  .00001552  00000-0  75347-4 0  9995,2 43438  98.6768 143.0698 0229318 192.2149 167.3457 15.00331115236152
